{"type": "FeatureCollection", "features": [{"type": "Feature", "properties": {"osm_type": "node", "osm_id": 356817625, "name": "Longview Church"}, "geometry": {"type": "Point", "coordinates": [-90.0309244, 35.094813]}}, {"type": "Feature", "properties": {"osm_type": "node", "osm_id": 356831595, "name": "Saint Pauls Church"}, "geometry": {"type": "Point", "coordinates": [-90.0062925, 35.1208834]}}, {"type": "Feature", "properties": {"osm_type": "node", "osm_id": 356843846, "name": "Cane Creek Church"}, "geometry": {"type": "Point", "coordinates": [-90.0178686, 35.0970351]}}, {"type": "Feature", "properties": {"osm_type": "node", "osm_id": 356845885, "name": "Saint Pauls Church"}, "geometry": {"type": "Point", "coordinates": [-90.0231464, 35.1162015]}}, {"type": "Feature", "properties": {"osm_type": "node", "osm_id": 356879772, "name": "Rock of Ages Church of God in Christ"}, "geometry": {"type": "Point", "coordinates": [-90.010924, 35.0867575]}}, {"type": "Feature", "properties": {"osm_type": "node", "osm_id": 356879829, "name": "Saint Jude Baptist Church"}, "geometry": {"type": "Point", "coordinates": [-90.0341221, 35.1112986]}}, {"type": "Feature", "properties": {"osm_type": "node", "osm_id": 356879833, "name": "Saint Marks Baptist Church"}, "geometry": {"type": "Point", "coordinates": [-90.0439801, 35.1217571]}}, {"type": "Feature", "properties": {"osm_type": "node", "osm_id": 356879850, "name": "Saint Peters Baptist Church"}, "geometry": {"type": "Point", "coordinates": [-90.010924, 35.0864798]}}, {"type": "Feature", "properties": {"osm_type": "node", "osm_id": 356879861, "name": "Saint Thomas Catholic Church"}, "geometry": {"type": "Point", "coordinates": [-90.0431468, 35.1123128]}}, {"type": "Feature", "properties": {"osm_type": "node", "osm_id": 356879873, "name": "Second Congregational Church"}, "geometry": {"type": "Point", "coordinates": [-90.0364799, 35.1198126]}}, {"type": "Feature", "properties": {"osm_type": "node", "osm_id": 356879887, "name": "Shiloh Missionary Baptist Church"}, "geometry": {"type": "Point", "coordinates": [-90.0310295, 35.1012468]}}, {"type": "Feature", "properties": {"osm_type": "node", "osm_id": 356879893, "name": "South Memphis Church of God"}, "geometry": {"type": "Point", "coordinates": [-90.0298132, 35.0945352]}}, {"type": "Feature", "properties": {"osm_type": "node", "osm_id": 356879896, "name": "Southside Church of Christ"}, "geometry": {"type": "Point", "coordinates": [-90.0423134, 35.1070351]}}, {"type": "Feature", "properties": {"osm_type": "node", "osm_id": 356879903, "name": "Tabernacle Baptist Church"}, "geometry": {"type": "Point", "coordinates": [-90.0070348, 35.111757]}}, {"type": "Feature", "properties": {"osm_type": "node", "osm_id": 356879913, "name": "The Church of God House of Prayer"}, "geometry": {"type": "Point", "coordinates": [-90.044258, 35.112035]}}, {"type": "Feature", "properties": {"osm_type": "node", "osm_id": 356879981, "name": "Warner Temple African Methodist Episcopal Zion Church"}, "geometry": {"type": "Point", "coordinates": [-90.0403689, 35.1220348]}}, {"type": "Feature", "properties": {"osm_type": "node", "osm_id": 356880055, "name": "Wings of Healing Missionary Baptist Church"}, "geometry": {"type": "Point", "coordinates": [-90.0298132, 35.1042573]}}, {"type": "Feature", "properties": {"osm_type": "node", "osm_id": 356880172, "name": "Majorie Street Baptist Church"}, "geometry": {"type": "Point", "coordinates": [-90.03148, 35.0967575]}}, {"type": "Feature", "properties": {"osm_type": "node", "osm_id": 356880274, "name": "Mont Evers Cathedral Missionary Baptist Church"}, "geometry": {"type": "Point", "coordinates": [-90.0412304, 35.1076831]}}, {"type": "Feature", "properties": {"osm_type": "node", "osm_id": 356880281, "name": "Monumental Baptist Church"}, "geometry": {"type": "Point", "coordinates": [-90.0392579, 35.1075907]}}, {"type": "Feature", "properties": {"osm_type": "node", "osm_id": 356880298, "name": "Morning View Baptist Church"}, "geometry": {"type": "Point", "coordinates": [-90.0431469, 35.1028686]}}, {"type": "Feature", "properties": {"osm_type": "node", "osm_id": 356880321, "name": "Mount Sinai Baptist Church"}, "geometry": {"type": "Point", "coordinates": [-90.0445963, 35.1015409]}}, {"type": "Feature", "properties": {"osm_type": "node", "osm_id": 356880329, "name": "Mount Zion Church of God"}, "geometry": {"type": "Point", "coordinates": [-90.0409245, 35.1112017]}}, {"type": "Feature", "properties": {"osm_type": "node", "osm_id": 356880355, "name": "New Asia Missionary Baptist Church"}, "geometry": {"type": "Point", "coordinates": [-90.0442579, 35.1125906]}}, {"type": "Feature", "properties": {"osm_type": "node", "osm_id": 356880357, "name": "New Bethel Missionary Baptist Church"}, "geometry": {"type": "Point", "coordinates": [-90.0323132, 35.1078684]}}, {"type": "Feature", "properties": {"osm_type": "node", "osm_id": 356880393, "name": "New Kingdom Missionary Baptist Church"}, "geometry": {"type": "Point", "coordinates": [-90.0448732, 35.1120087]}}, {"type": "Feature", "properties": {"osm_type": "node", "osm_id": 356880481, "name": "Pilgrim Rest Baptist Church"}, "geometry": {"type": "Point", "coordinates": [-90.0433122, 35.1091929]}}, {"type": "Feature", "properties": {"osm_type": "node", "osm_id": 356880499, "name": "Praise of Zion Baptist Church"}, "geometry": {"type": "Point", "coordinates": [-90.03898, 35.1203682]}}, {"type": "Feature", "properties": {"osm_type": "node", "osm_id": 356880825, "name": "Bible Day Revival Church"}, "geometry": {"type": "Point", "coordinates": [-90.0403689, 35.123146]}}, {"type": "Feature", "properties": {"osm_type": "node", "osm_id": 356880896, "name": "Carnegie Church of God in Christ"}, "geometry": {"type": "Point", "coordinates": [-90.0431965, 35.1038551]}}, {"type": "Feature", "properties": {"osm_type": "node", "osm_id": 356880917, "name": "Christ Holy Ghost Baptist Church"}, "geometry": {"type": "Point", "coordinates": [-90.0123127, 35.1184235]}}, {"type": "Feature", "properties": {"osm_type": "node", "osm_id": 356880921, "name": "Christ Temple Church of Christ"}, "geometry": {"type": "Point", "coordinates": [-90.044467, 35.1222213]}}, {"type": "Feature", "properties": {"osm_type": "node", "osm_id": 356880933, "name": "Church of Christ"}, "geometry": {"type": "Point", "coordinates": [-90.024813, 35.1114794]}}, {"type": "Feature", "properties": {"osm_type": "node", "osm_id": 356880940, "name": "Church of the Living God"}, "geometry": {"type": "Point", "coordinates": [-90.0062574, 35.1204767]}}, {"type": "Feature", "properties": {"osm_type": "node", "osm_id": 356880967, "name": "Cross Temple Church of God in Christ"}, "geometry": {"type": "Point", "coordinates": [-90.0442686, 35.1240432]}}, {"type": "Feature", "properties": {"osm_type": "node", "osm_id": 356880981, "name": "East Trigg Avenue Baptist Church"}, "geometry": {"type": "Point", "coordinates": [-90.0228686, 35.1114794]}}, {"type": "Feature", "properties": {"osm_type": "node", "osm_id": 356881016, "name": "Evening Star Missionary Baptist Church"}, "geometry": {"type": "Point", "coordinates": [-90.0384244, 35.1184237]}}, {"type": "Feature", "properties": {"osm_type": "node", "osm_id": 356881029, "name": "Faith Temple Church of God in Christ"}, "geometry": {"type": "Point", "coordinates": [-90.0242575, 35.1187014]}}, {"type": "Feature", "properties": {"osm_type": "node", "osm_id": 356881061, "name": "First Pentecostal Church"}, "geometry": {"type": "Point", "coordinates": [-90.0409244, 35.1214793]}}, {"type": "Feature", "properties": {"osm_type": "node", "osm_id": 356881152, "name": "Gods Miracle Prayer Temple"}, "geometry": {"type": "Point", "coordinates": [-90.0267575, 35.119257]}}, {"type": "Feature", "properties": {"osm_type": "node", "osm_id": 356881197, "name": "Greater Corinthian Missionary Baptist Church"}, "geometry": {"type": "Point", "coordinates": [-90.0245352, 35.1209236]}}, {"type": "Feature", "properties": {"osm_type": "node", "osm_id": 356881208, "name": "Greater Hyde Park Baptist Church"}, "geometry": {"type": "Point", "coordinates": [-90.0409244, 35.123146]}}, {"type": "Feature", "properties": {"osm_type": "node", "osm_id": 356881221, "name": "Greater New Salem Baptist Church"}, "geometry": {"type": "Point", "coordinates": [-90.0369908, 35.1146261]}}, {"type": "Feature", "properties": {"osm_type": "node", "osm_id": 356881231, "name": "Greater Prospect Missionary Baptist Church"}, "geometry": {"type": "Point", "coordinates": [-90.0300909, 35.1148126]}}, {"type": "Feature", "properties": {"osm_type": "node", "osm_id": 356881232, "name": "Greater Pure in Heart Baptist Church"}, "geometry": {"type": "Point", "coordinates": [-90.0395355, 35.1217571]}}, {"type": "Feature", "properties": {"osm_type": "node", "osm_id": 356881278, "name": "Holy Ghost Temple Church of God in Christ"}, "geometry": {"type": "Point", "coordinates": [-90.0365881, 35.1136209]}}, {"type": "Feature", "properties": {"osm_type": "node", "osm_id": 356881284, "name": "Holy Temple Church of God in Christ"}, "geometry": {"type": "Point", "coordinates": [-90.018078, 35.1123546]}}, {"type": "Feature", "properties": {"osm_type": "node", "osm_id": 356881296, "name": "Independent Missionary Baptist Church"}, "geometry": {"type": "Point", "coordinates": [-90.0281465, 35.1114794]}}, {"type": "Feature", "properties": {"osm_type": "node", "osm_id": 356881306, "name": "Jerusalem Chapel"}, "geometry": {"type": "Point", "coordinates": [-90.0398133, 35.1220348]}}, {"type": "Feature", "properties": {"osm_type": "node", "osm_id": 356881309, "name": "Jordan River Baptist Church"}, "geometry": {"type": "Point", "coordinates": [-90.0240085, 35.1118768]}}, {"type": "Feature", "properties": {"osm_type": "node", "osm_id": 356881358, "name": "Lake Grove Baptist Church Number Two"}, "geometry": {"type": "Point", "coordinates": [-90.0353594, 35.0997199]}}, {"type": "Feature", "properties": {"osm_type": "node", "osm_id": 356881427, "name": "Little Sanctified Mission Church of God in Christ"}, "geometry": {"type": "Point", "coordinates": [-90.0387867, 35.1123082]}}, {"type": "Feature", "properties": {"osm_type": "node", "osm_id": 356881436, "name": "Longview Community Holiness Church"}, "geometry": {"type": "Point", "coordinates": [-90.0447103, 35.0948271]}}, {"type": "Feature", "properties": {"osm_type": "node", "osm_id": 356897885, "name": "Market Place Baptist Church"}, "geometry": {"type": "Point", "coordinates": [-90.0403869, 35.1211139]}}, {"type": "Feature", "properties": {"osm_type": "node", "osm_id": 356898666, "name": "Abundant Life Temple"}, "geometry": {"type": "Point", "coordinates": [-90.007702, 35.1210716]}}, {"type": "Feature", "properties": {"osm_type": "node", "osm_id": 356898728, "name": "Bethel Presbyterian Church"}, "geometry": {"type": "Point", "coordinates": [-90.0375675, 35.1180755]}}, {"type": "Feature", "properties": {"osm_type": "node", "osm_id": 356898855, "name": "Centenary United Methodist Church", "addr:housenumber": "584", "addr:street": "East McLemore Avenue", "phone": "+1-901-774-7604", "website": "https://centenarymemphis.com/"}, "geometry": {"type": "Point", "coordinates": [-90.042533, 35.116443]}}, {"type": "Feature", "properties": {"osm_type": "node", "osm_id": 356898873, "name": "Christ Communion Church of God in Christ"}, "geometry": {"type": "Point", "coordinates": [-90.0446832, 35.107047]}}, {"type": "Feature", "properties": {"osm_type": "node", "osm_id": 356898983, "name": "Eternal Peace Baptist Church"}, "geometry": {"type": "Point", "coordinates": [-90.010973, 35.112234]}}, {"type": "Feature", "properties": {"osm_type": "node", "osm_id": 356898986, "name": "Eureka Missionary Baptist Church"}, "geometry": {"type": "Point", "coordinates": [-90.008959, 35.121305]}}, {"type": "Feature", "properties": {"osm_type": "node", "osm_id": 356899017, "name": "Faith Temple Missionary Baptist Church"}, "geometry": {"type": "Point", "coordinates": [-90.029935, 35.094406]}}, {"type": "Feature", "properties": {"osm_type": "node", "osm_id": 356899049, "name": "First True Word Church Ministry"}, "geometry": {"type": "Point", "coordinates": [-90.0419055, 35.1123072]}}, {"type": "Feature", "properties": {"osm_type": "node", "osm_id": 356899153, "name": "Greater Beulah Land Missionary Baptist Church"}, "geometry": {"type": "Point", "coordinates": [-90.039009, 35.124395]}}, {"type": "Feature", "properties": {"osm_type": "node", "osm_id": 356899202, "name": "Greater Mount Nebo Missionary Baptist Church"}, "geometry": {"type": "Point", "coordinates": [-90.0418355, 35.1030643]}}, {"type": "Feature", "properties": {"osm_type": "node", "osm_id": 356899210, "name": "Greater New Liberty Church"}, "geometry": {"type": "Point", "coordinates": [-90.039043, 35.102438]}}, {"type": "Feature", "properties": {"osm_type": "node", "osm_id": 356899241, "name": "Harris Memorial Christian Methodist Episcopal Church"}, "geometry": {"type": "Point", "coordinates": [-90.0437587, 35.1040279]}}, {"type": "Feature", "properties": {"osm_type": "node", "osm_id": 356899606, "name": "Lemoyne Truevine Missionary Baptist Church"}, "geometry": {"type": "Point", "coordinates": [-90.042986, 35.114231]}}, {"type": "Feature", "properties": {"osm_type": "node", "osm_id": 356899649, "name": "Melrose Baptist Church"}, "geometry": {"type": "Point", "coordinates": [-90.006665, 35.107093]}}, {"type": "Feature", "properties": {"osm_type": "node", "osm_id": 356899667, "name": "Mission Global Ministries"}, "geometry": {"type": "Point", "coordinates": [-90.043146, 35.102442]}}, {"type": "Feature", "properties": {"osm_type": "node", "osm_id": 356899744, "name": "New Jerusalem Missionary Baptist Church"}, "geometry": {"type": "Point", "coordinates": [-90.022409, 35.087904]}}, {"type": "Feature", "properties": {"osm_type": "node", "osm_id": 356899749, "name": "New Mount Olive Baptist Church"}, "geometry": {"type": "Point", "coordinates": [-90.036964, 35.123644]}}, {"type": "Feature", "properties": {"osm_type": "node", "osm_id": 356899791, "name": "Praise Temple Church of God in Christ"}, "geometry": {"type": "Point", "coordinates": [-90.029928, 35.094405]}}, {"type": "Feature", "properties": {"osm_type": "node", "osm_id": 356899876, "name": "Saint Augustine Catholic Church"}, "geometry": {"type": "Point", "coordinates": [-90.0241721, 35.1062876]}}, {"type": "Feature", "properties": {"osm_type": "node", "osm_id": 356899887, "name": "Saint Mark Church of God in Christ"}, "geometry": {"type": "Point", "coordinates": [-90.0310457, 35.1052075]}}, {"type": "Feature", "properties": {"osm_type": "node", "osm_id": 356899922, "name": "Shelby County Inter-Faith Church"}, "geometry": {"type": "Point", "coordinates": [-90.011281, 35.122432]}}, {"type": "Feature", "properties": {"osm_type": "node", "osm_id": 356899927, "name": "Sisters Outreach Ministries"}, "geometry": {"type": "Point", "coordinates": [-90.0410716, 35.1093711]}}, {"type": "Feature", "properties": {"osm_type": "node", "osm_id": 356899930, "name": "Society of the Divine Church"}, "geometry": {"type": "Point", "coordinates": [-90.043262, 35.112484]}}, {"type": "Feature", "properties": {"osm_type": "node", "osm_id": 356900063, "name": "Trigg Avenue Church of Christ"}, "geometry": {"type": "Point", "coordinates": [-90.024442, 35.111398]}}, {"type": "Feature", "properties": {"osm_type": "node", "osm_id": 356900134, "name": "Unity Faith Temple of Christ"}, "geometry": {"type": "Point", "coordinates": [-90.041048, 35.121566]}}, {"type": "Feature", "properties": {"osm_type": "node", "osm_id": 356900163, "name": "Word of God Deliverance Temple Church"}, "geometry": {"type": "Point", "coordinates": [-90.010375, 35.11017]}}, {"type": "Feature", "properties": {"osm_type": "node", "osm_id": 420637847, "name": "Calvary Longview United Methodist Church"}, "geometry": {"type": "Point", "coordinates": [-90.0448136, 35.0917577]}}, {"type": "Feature", "properties": {"osm_type": "way", "osm_id": 478375562, "name": "Peters Rock Baptist Church"}, "geometry": {"type": "Point", "coordinates": [-90.0148145, 35.0943264]}}, {"type": "Feature", "properties": {"osm_type": "way", "osm_id": 478375993, "name": "Greater Abyssina Baptist Church", "addr:street": "Silver Street"}, "geometry": {"type": "Point", "coordinates": [-90.0123764, 35.1017749]}}, {"type": "Feature", "properties": {"osm_type": "way", "osm_id": 478379352, "name": "Power House Church of God in Christ"}, "geometry": {"type": "Point", "coordinates": [-90.0115441, 35.089382]}}, {"type": "Feature", "properties": {"osm_type": "way", "osm_id": 478379486, "name": "Providence Baptist Church", "addr:street": "Perry Road"}, "geometry": {"type": "Point", "coordinates": [-90.0105933, 35.0909522]}}, {"type": "Feature", "properties": {"osm_type": "way", "osm_id": 543929502, "name": "Abundant Life Temple"}, "geometry": {"type": "Point", "coordinates": [-90.0074961, 35.1210002]}}, {"type": "Feature", "properties": {"osm_type": "way", "osm_id": 543931751, "name": null}, "geometry": {"type": "Point", "coordinates": [-90.0062993, 35.1208776]}}, {"type": "Feature", "properties": {"osm_type": "way", "osm_id": 543931758, "name": null}, "geometry": {"type": "Point", "coordinates": [-90.0062621, 35.1204637]}}, {"type": "Feature", "properties": {"osm_type": "way", "osm_id": 764027576, "name": null}, "geometry": {"type": "Point", "coordinates": [-90.0103984, 35.1101724]}}, {"type": "Feature", "properties": {"osm_type": "way", "osm_id": 764307266, "name": null}, "geometry": {"type": "Point", "coordinates": [-90.0181055, 35.1123771]}}, {"type": "Feature", "properties": {"osm_type": "way", "osm_id": 764320479, "name": null}, "geometry": {"type": "Point", "coordinates": [-90.0109752, 35.112293]}}, {"type": "Feature", "properties": {"osm_type": "way", "osm_id": 764320480, "name": null}, "geometry": {"type": "Point", "coordinates": [-90.0070901, 35.1118597]}}, {"type": "Feature", "properties": {"osm_type": "way", "osm_id": 764392313, "name": "Saint Peters Baptist Church"}, "geometry": {"type": "Point", "coordinates": [-90.0145035, 35.1078979]}}, {"type": "Feature", "properties": {"osm_type": "way", "osm_id": 764445763, "name": "Pillow Street Christian Methodist Episcopal Church"}, "geometry": {"type": "Point", "coordinates": [-90.0148198, 35.1028545]}}, {"type": "Feature", "properties": {"osm_type": "way", "osm_id": 764445786, "name": "New Friendship Baptist Church"}, "geometry": {"type": "Point", "coordinates": [-90.0127463, 35.1034417]}}, {"type": "Feature", "properties": {"osm_type": "way", "osm_id": 764489814, "name": "Pilgrim Rest Baptist Church"}, "geometry": {"type": "Point", "coordinates": [-90.0145928, 35.1059177]}}, {"type": "Feature", "properties": {"osm_type": "way", "osm_id": 764583736, "name": "Parkway Missionary Baptist Church"}, "geometry": {"type": "Point", "coordinates": [-90.0082891, 35.1087593]}}, {"type": "Feature", "properties": {"osm_type": "way", "osm_id": 764583742, "name": "Parkway Garden Presbyterian Church"}, "geometry": {"type": "Point", "coordinates": [-90.0064919, 35.1083343]}}, {"type": "Feature", "properties": {"osm_type": "way", "osm_id": 764583743, "name": null}, "geometry": {"type": "Point", "coordinates": [-90.0066635, 35.1071358]}}, {"type": "Feature", "properties": {"osm_type": "way", "osm_id": 765182010, "name": "Galilee African Methodist Episcopal Church"}, "geometry": {"type": "Point", "coordinates": [-90.002443, 35.1059342]}}, {"type": "Feature", "properties": {"osm_type": "way", "osm_id": 766112741, "name": null}, "geometry": {"type": "Point", "coordinates": [-90.022373, 35.0878993]}}, {"type": "Feature", "properties": {"osm_type": "way", "osm_id": 766245837, "name": null}, "geometry": {"type": "Point", "coordinates": [-90.0108453, 35.0866665]}}, {"type": "Feature", "properties": {"osm_type": "way", "osm_id": 766245844, "name": "Macedonia Missionary Baptist Church"}, "geometry": {"type": "Point", "coordinates": [-90.010833, 35.0881862]}}, {"type": "Feature", "properties": {"osm_type": "way", "osm_id": 766302016, "name": "Oak Hill Missionary Baptist Church"}, "geometry": {"type": "Point", "coordinates": [-90.0100475, 35.0983699]}}, {"type": "Feature", "properties": {"osm_type": "way", "osm_id": 766306785, "name": "Greater Abyssinia Church"}, "geometry": {"type": "Point", "coordinates": [-90.0122645, 35.0987995]}}, {"type": "Feature", "properties": {"osm_type": "way", "osm_id": 766796442, "name": null}, "geometry": {"type": "Point", "coordinates": [-90.0061419, 35.1166691]}}, {"type": "Feature", "properties": {"osm_type": "way", "osm_id": 767402490, "name": null}, "geometry": {"type": "Point", "coordinates": [-90.0249211, 35.1114224]}}, {"type": "Feature", "properties": {"osm_type": "way", "osm_id": 767402493, "name": null}, "geometry": {"type": "Point", "coordinates": [-90.0227577, 35.1113656]}}, {"type": "Feature", "properties": {"osm_type": "way", "osm_id": 767404529, "name": null}, "geometry": {"type": "Point", "coordinates": [-90.0239204, 35.1118679]}}, {"type": "Feature", "properties": {"osm_type": "way", "osm_id": 767412345, "name": null, "addr:street": "Cummings Street"}, "geometry": {"type": "Point", "coordinates": [-90.0272004, 35.1134531]}}, {"type": "Feature", "properties": {"osm_type": "way", "osm_id": 767412358, "name": "True Believers Holiness Church"}, "geometry": {"type": "Point", "coordinates": [-90.0270033, 35.1150905]}}, {"type": "Feature", "properties": {"osm_type": "way", "osm_id": 767572284, "name": "Grace Temple Church of God in Christ"}, "geometry": {"type": "Point", "coordinates": [-90.0229936, 35.1074541]}}, {"type": "Feature", "properties": {"osm_type": "way", "osm_id": 767572319, "name": "Ward Chapel African Methodist Episcopal Church"}, "geometry": {"type": "Point", "coordinates": [-90.0249851, 35.1092299]}}, {"type": "Feature", "properties": {"osm_type": "way", "osm_id": 768689190, "name": "Southside Church of God In Christ"}, "geometry": {"type": "Point", "coordinates": [-90.0252464, 35.1157089]}}, {"type": "Feature", "properties": {"osm_type": "way", "osm_id": 768689194, "name": "Alpha Church"}, "geometry": {"type": "Point", "coordinates": [-90.0260268, 35.1159216]}}, {"type": "Feature", "properties": {"osm_type": "way", "osm_id": 769707739, "name": null}, "geometry": {"type": "Point", "coordinates": [-90.0448206, 35.0916469]}}, {"type": "Feature", "properties": {"osm_type": "way", "osm_id": 770023272, "name": null}, "geometry": {"type": "Point", "coordinates": [-90.030912, 35.0944369]}}, {"type": "Feature", "properties": {"osm_type": "way", "osm_id": 770023275, "name": null}, "geometry": {"type": "Point", "coordinates": [-90.0299519, 35.0943961]}}, {"type": "Feature", "properties": {"osm_type": "way", "osm_id": 770023309, "name": null}, "geometry": {"type": "Point", "coordinates": [-90.0338739, 35.0972465]}}, {"type": "Feature", "properties": {"osm_type": "way", "osm_id": 770050141, "name": "First Thessalonians Baptist Church"}, "geometry": {"type": "Point", "coordinates": [-90.0390503, 35.0945232]}}, {"type": "Feature", "properties": {"osm_type": "way", "osm_id": 770071387, "name": null}, "geometry": {"type": "Point", "coordinates": [-90.0353161, 35.099736]}}, {"type": "Feature", "properties": {"osm_type": "way", "osm_id": 770077545, "name": null}, "geometry": {"type": "Point", "coordinates": [-90.031086, 35.1012086]}}, {"type": "Feature", "properties": {"osm_type": "way", "osm_id": 770096105, "name": null}, "geometry": {"type": "Point", "coordinates": [-90.031028, 35.1052138]}}, {"type": "Feature", "properties": {"osm_type": "way", "osm_id": 770096157, "name": null}, "geometry": {"type": "Point", "coordinates": [-90.0322822, 35.1079895]}}, {"type": "Feature", "properties": {"osm_type": "way", "osm_id": 770096158, "name": "Saint Andrews Church"}, "geometry": {"type": "Point", "coordinates": [-90.0333461, 35.1079498]}}, {"type": "Feature", "properties": {"osm_type": "way", "osm_id": 770096175, "name": null}, "geometry": {"type": "Point", "coordinates": [-90.0370077, 35.1079814]}}, {"type": "Feature", "properties": {"osm_type": "way", "osm_id": 770100380, "name": "Prince of Peace Missionary Baptist Church"}, "geometry": {"type": "Point", "coordinates": [-90.0345202, 35.1058875]}}, {"type": "Feature", "properties": {"osm_type": "way", "osm_id": 770460985, "name": null}, "geometry": {"type": "Point", "coordinates": [-90.0390672, 35.1024361]}}, {"type": "Feature", "properties": {"osm_type": "way", "osm_id": 770460994, "name": null}, "geometry": {"type": "Point", "coordinates": [-90.0389615, 35.1045922]}}, {"type": "Feature", "properties": {"osm_type": "way", "osm_id": 770533385, "name": null}, "geometry": {"type": "Point", "coordinates": [-90.0421403, 35.1070233]}}, {"type": "Feature", "properties": {"osm_type": "way", "osm_id": 770533390, "name": null}, "geometry": {"type": "Point", "coordinates": [-90.0419045, 35.1038159]}}, {"type": "Feature", "properties": {"osm_type": "way", "osm_id": 770533391, "name": null}, "geometry": {"type": "Point", "coordinates": [-90.0419209, 35.1031543]}}, {"type": "Feature", "properties": {"osm_type": "way", "osm_id": 770646485, "name": null}, "geometry": {"type": "Point", "coordinates": [-90.043104, 35.102465]}}, {"type": "Feature", "properties": {"osm_type": "way", "osm_id": 770646505, "name": null}, "geometry": {"type": "Point", "coordinates": [-90.0445093, 35.1015618]}}, {"type": "Feature", "properties": {"osm_type": "way", "osm_id": 770646510, "name": null}, "geometry": {"type": "Point", "coordinates": [-90.0437207, 35.1040693]}}, {"type": "Feature", "properties": {"osm_type": "way", "osm_id": 770646512, "name": null}, "geometry": {"type": "Point", "coordinates": [-90.0431833, 35.1038639]}}, {"type": "Feature", "properties": {"osm_type": "way", "osm_id": 770658910, "name": null}, "geometry": {"type": "Point", "coordinates": [-90.0448707, 35.1069905]}}, {"type": "Feature", "properties": {"osm_type": "way", "osm_id": 771082996, "name": null}, "geometry": {"type": "Point", "coordinates": [-90.0447128, 35.0948103]}}, {"type": "Feature", "properties": {"osm_type": "way", "osm_id": 771187060, "name": null}, "geometry": {"type": "Point", "coordinates": [-90.0391946, 35.1075872]}}, {"type": "Feature", "properties": {"osm_type": "way", "osm_id": 771187104, "name": null, "addr:street": "South Orleans Street"}, "geometry": {"type": "Point", "coordinates": [-90.0410812, 35.1093801]}}, {"type": "Feature", "properties": {"osm_type": "way", "osm_id": 771318423, "name": null}, "geometry": {"type": "Point", "coordinates": [-90.0433977, 35.1092643]}}, {"type": "Feature", "properties": {"osm_type": "way", "osm_id": 771318452, "name": null}, "geometry": {"type": "Point", "coordinates": [-90.0448504, 35.1119348]}}, {"type": "Feature", "properties": {"osm_type": "way", "osm_id": 771652016, "name": null, "addr:street": "Lucy Avenue"}, "geometry": {"type": "Point", "coordinates": [-90.0429743, 35.1142566]}}, {"type": "Feature", "properties": {"osm_type": "way", "osm_id": 771688466, "name": null}, "geometry": {"type": "Point", "coordinates": [-90.0365803, 35.1136389]}}, {"type": "Feature", "properties": {"osm_type": "way", "osm_id": 771688469, "name": null}, "geometry": {"type": "Point", "coordinates": [-90.0369792, 35.1146221]}}, {"type": "Feature", "properties": {"osm_type": "way", "osm_id": 771712082, "name": null, "addr:street": "East Trigg Avenue"}, "geometry": {"type": "Point", "coordinates": [-90.0419072, 35.1123263]}}, {"type": "Feature", "properties": {"osm_type": "way", "osm_id": 771715690, "name": null}, "geometry": {"type": "Point", "coordinates": [-90.0432257, 35.1125067]}}, {"type": "Feature", "properties": {"osm_type": "way", "osm_id": 771775026, "name": null}, "geometry": {"type": "Point", "coordinates": [-90.0423465, 35.1163869]}}, {"type": "Feature", "properties": {"osm_type": "way", "osm_id": 771783147, "name": null}, "geometry": {"type": "Point", "coordinates": [-90.0424395, 35.1188965]}}, {"type": "Feature", "properties": {"osm_type": "way", "osm_id": 771898325, "name": null}, "geometry": {"type": "Point", "coordinates": [-90.0384537, 35.1183321]}}, {"type": "Feature", "properties": {"osm_type": "way", "osm_id": 771898348, "name": null, "addr:street": "Walker Avenue"}, "geometry": {"type": "Point", "coordinates": [-90.0406043, 35.119276]}}, {"type": "Feature", "properties": {"osm_type": "way", "osm_id": 771942414, "name": null}, "geometry": {"type": "Point", "coordinates": [-90.0437313, 35.1215289]}}, {"type": "Feature", "properties": {"osm_type": "way", "osm_id": 771942418, "name": null}, "geometry": {"type": "Point", "coordinates": [-90.044478, 35.1222248]}}, {"type": "Feature", "properties": {"osm_type": "way", "osm_id": 771963506, "name": null}, "geometry": {"type": "Point", "coordinates": [-90.0441969, 35.124009]}}, {"type": "Feature", "properties": {"osm_type": "way", "osm_id": 773890006, "name": "Metropolitan Baptist Church"}, "geometry": {"type": "Point", "coordinates": [-90.0363671, 35.118954]}}, {"type": "Feature", "properties": {"osm_type": "way", "osm_id": 773890008, "name": null}, "geometry": {"type": "Point", "coordinates": [-90.0375375, 35.1180145]}}, {"type": "Feature", "properties": {"osm_type": "way", "osm_id": 773890033, "name": null}, "geometry": {"type": "Point", "coordinates": [-90.0362039, 35.1197027]}}, {"type": "Feature", "properties": {"osm_type": "way", "osm_id": 773890043, "name": null}, "geometry": {"type": "Point", "coordinates": [-90.0369587, 35.1235238]}}, {"type": "Feature", "properties": {"osm_type": "way", "osm_id": 773890060, "name": null}, "geometry": {"type": "Point", "coordinates": [-90.0390219, 35.1243613]}}, {"type": "Feature", "properties": {"osm_type": "way", "osm_id": 778006449, "name": null}, "geometry": {"type": "Point", "coordinates": [-90.0341281, 35.11141]}}, {"type": "Feature", "properties": {"osm_type": "way", "osm_id": 778006469, "name": "Avery Chapel African Methodist Episcopal Church"}, "geometry": {"type": "Point", "coordinates": [-90.0328937, 35.112294]}}, {"type": "Feature", "properties": {"osm_type": "way", "osm_id": 778335170, "name": "New Zion Missionary Baptist Church"}, "geometry": {"type": "Point", "coordinates": [-90.0300079, 35.1138926]}}, {"type": "Feature", "properties": {"osm_type": "way", "osm_id": 778335171, "name": null}, "geometry": {"type": "Point", "coordinates": [-90.0300098, 35.1144751]}}, {"type": "Feature", "properties": {"osm_type": "way", "osm_id": 778335186, "name": "Mount Olive Church of God in Christ"}, "geometry": {"type": "Point", "coordinates": [-90.0300706, 35.11342]}}, {"type": "Feature", "properties": {"osm_type": "way", "osm_id": 1122914805, "name": "Zion Hill Baptist Church"}, "geometry": {"type": "Point", "coordinates": [-90.0352126, 35.1066389]}}, {"type": "Feature", "properties": {"osm_type": "relation", "osm_id": 10664699, "name": "Longview Heights Seventh Day Adventist Church"}, "geometry": {"type": "Point", "coordinates": [-90.0404142, 35.085921]}}, {"type": "Feature", "properties": {"osm_type": "relation", "osm_id": 10686417, "name": null}, "geometry": {"type": "Point", "coordinates": [-90.0442846, 35.1055259]}}, {"type": "Feature", "properties": {"osm_type": "relation", "osm_id": 10725969, "name": null}, "geometry": {"type": "Point", "coordinates": [-90.0389488, 35.1204395]}}], "source": "OpenStreetMap via Overpass API", "fetched_at": "2026-07-16T06:57:11.588495+00:00"}