{"type": "FeatureCollection", "features": [{"type": "Feature", "properties": {"osm_type": "node", "osm_id": 2795068962, "name": "Pine Hill Community Center", "addr:housenumber": "973", "addr:street": "Alice Avenue", "phone": "+1-901-774-7950", "website": "https://www.memphistn.gov/Government/ParksNeighborhoods/CommunityCenters/AlphabeticalListofCenters/PineHill.aspx"}, "geometry": {"type": "Point", "coordinates": [-90.0303805, 35.093741]}}], "source": "OpenStreetMap via Overpass API", "fetched_at": "2026-07-16T06:56:48.082301+00:00"}