{"type": "FeatureCollection", "features": [{"type": "Feature", "properties": {"osm_type": "node", "osm_id": 2326594332, "name": "High Point Grocery", "addr:housenumber": "469", "addr:street": "High Point Terrace", "shop": "supermarket", "website": "https://www.highpointgrocery.com/"}, "geometry": {"type": "Point", "coordinates": [-89.9376722, 35.1444938]}}, {"type": "Feature", "properties": {"osm_type": "node", "osm_id": 2796596190, "name": "Kroger", "addr:housenumber": "1366", "addr:street": "Poplar Avenue", "phone": "+1 901-272-7881", "shop": "supermarket", "website": "https://www.kroger.com/stores/grocery/tn/memphis/poplar-cleveland/025/00415"}, "geometry": {"type": "Point", "coordinates": [-90.0147635, 35.1452795]}}, {"type": "Feature", "properties": {"osm_type": "node", "osm_id": 2796632932, "name": "Superlo Foods", "addr:housenumber": "2269", "addr:street": "Lamar Avenue", "shop": "supermarket"}, "geometry": {"type": "Point", "coordinates": [-89.9878279, 35.1057449]}}, {"type": "Feature", "properties": {"osm_type": "node", "osm_id": 4150307084, "name": "Midtown Mini Mart", "addr:housenumber": "634", "addr:street": "North McLean Boulevard", "shop": "convenience"}, "geometry": {"type": "Point", "coordinates": [-89.9973117, 35.1552223]}}, {"type": "Feature", "properties": {"osm_type": "node", "osm_id": 6058652407, "name": "K Circle Convenience Store", "shop": "convenience"}, "geometry": {"type": "Point", "coordinates": [-90.0001139, 35.1381234]}}, {"type": "Feature", "properties": {"osm_type": "node", "osm_id": 6551423285, "name": "B & G Food Mart", "addr:housenumber": "1076", "addr:street": "South Cooper Street", "shop": "convenience"}, "geometry": {"type": "Point", "coordinates": [-89.9910164, 35.1164299]}}, {"type": "Feature", "properties": {"osm_type": "node", "osm_id": 7799209078, "name": "Curb Market", "addr:housenumber": "1350", "addr:street": "Concourse Avenue", "shop": "greengrocer", "website": "https://curbmarket901.com/"}, "geometry": {"type": "Point", "coordinates": [-90.0140373, 35.1518794]}}, {"type": "Feature", "properties": {"osm_type": "node", "osm_id": 8816103393, "name": "Viet Hoa Food Market", "addr:housenumber": "40", "addr:street": "North Cleveland Street", "phone": "+1-901-726-9388", "shop": "supermarket", "website": "https://www.viethoafood.com/"}, "geometry": {"type": "Point", "coordinates": [-90.0158553, 35.1398789]}}, {"type": "Feature", "properties": {"osm_type": "node", "osm_id": 8927831882, "name": "Hop In", "addr:housenumber": "3796", "addr:street": "East Shelby Drive", "shop": "convenience"}, "geometry": {"type": "Point", "coordinates": [-89.9376557, 35.0211871]}}, {"type": "Feature", "properties": {"osm_type": "node", "osm_id": 8927831886, "name": "Mapco Express", "addr:housenumber": "3271", "addr:street": "East Shelby Drive", "shop": "convenience"}, "geometry": {"type": "Point", "coordinates": [-89.9550733, 35.0203194]}}, {"type": "Feature", "properties": {"osm_type": "node", "osm_id": 8927831887, "name": "Airport Food Mart", "addr:housenumber": "2205", "addr:street": "East Shelby Drive", "shop": "convenience"}, "geometry": {"type": "Point", "coordinates": [-89.9902793, 35.0204674]}}, {"type": "Feature", "properties": {"osm_type": "node", "osm_id": 8927831889, "name": "Citgo", "addr:housenumber": "2038", "addr:street": "East Shelby Drive", "phone": "+1 901 395 0599", "shop": "convenience", "website": "https://gas-stations.citgo.com/tn/memphis/38116/2038-e-shelby-dr"}, "geometry": {"type": "Point", "coordinates": [-89.9958403, 35.0216528]}}, {"type": "Feature", "properties": {"osm_type": "node", "osm_id": 8927831890, "name": "H & N Market", "addr:housenumber": "2006", "addr:street": "East Shelby Drive", "shop": "convenience"}, "geometry": {"type": "Point", "coordinates": [-89.9970013, 35.0214905]}}, {"type": "Feature", "properties": {"osm_type": "node", "osm_id": 9143702230, "name": "Stepherson's", "addr:housenumber": "3942", "addr:street": "Macon Road", "shop": "supermarket"}, "geometry": {"type": "Point", "coordinates": [-89.9293844, 35.1627635]}}, {"type": "Feature", "properties": {"osm_type": "node", "osm_id": 10249418165, "name": "Market 901", "shop": "convenience"}, "geometry": {"type": "Point", "coordinates": [-89.9806217, 35.0413955]}}, {"type": "Feature", "properties": {"osm_type": "node", "osm_id": 10249418168, "name": "Bluff City Market", "shop": "convenience"}, "geometry": {"type": "Point", "coordinates": [-89.9798275, 35.0408798]}}, {"type": "Feature", "properties": {"osm_type": "node", "osm_id": 10751841011, "name": "Hop-In", "shop": "convenience"}, "geometry": {"type": "Point", "coordinates": [-90.0259, 35.0205887]}}, {"type": "Feature", "properties": {"osm_type": "node", "osm_id": 10751880605, "name": "Chickasaw Express", "shop": "convenience"}, "geometry": {"type": "Point", "coordinates": [-89.9627856, 35.1336101]}}, {"type": "Feature", "properties": {"osm_type": "node", "osm_id": 11522491623, "name": "Marathon", "shop": "convenience"}, "geometry": {"type": "Point", "coordinates": [-89.9858272, 35.1060916]}}, {"type": "Feature", "properties": {"osm_type": "node", "osm_id": 12074300037, "name": null, "shop": "supermarket"}, "geometry": {"type": "Point", "coordinates": [-90.0702642, 35.0662437]}}, {"type": "Feature", "properties": {"osm_type": "node", "osm_id": 12147270431, "name": "DG Grocery", "addr:housenumber": "3502", "addr:street": "PARK AVE (Normal) 3502, Memphis", "shop": "greengrocer"}, "geometry": {"type": "Point", "coordinates": [-89.9454517, 35.1084789]}}, {"type": "Feature", "properties": {"osm_type": "node", "osm_id": 12304992002, "name": "City Market", "addr:housenumber": "66", "addr:street": "South Main Street", "phone": "+1-901-729-6152", "shop": "convenience"}, "geometry": {"type": "Point", "coordinates": [-90.0534088, 35.1432742]}}, {"type": "Feature", "properties": {"osm_type": "node", "osm_id": 12361541029, "name": null, "shop": "convenience"}, "geometry": {"type": "Point", "coordinates": [-90.0312212, 35.0611191]}}, {"type": "Feature", "properties": {"osm_type": "node", "osm_id": 12463093243, "name": "Sandra's Sundries", "shop": "convenience"}, "geometry": {"type": "Point", "coordinates": [-90.0521816, 35.1481814]}}, {"type": "Feature", "properties": {"osm_type": "node", "osm_id": 12670934955, "name": null, "shop": "convenience"}, "geometry": {"type": "Point", "coordinates": [-90.0583796, 35.0643079]}}, {"type": "Feature", "properties": {"osm_type": "node", "osm_id": 13913366539, "name": "Brother's Grocery Store", "shop": "convenience"}, "geometry": {"type": "Point", "coordinates": [-90.044242, 35.1492148]}}, {"type": "Feature", "properties": {"osm_type": "node", "osm_id": 14011108122, "name": null, "shop": "convenience"}, "geometry": {"type": "Point", "coordinates": [-89.9984882, 35.1429556]}}, {"type": "Feature", "properties": {"osm_type": "node", "osm_id": 14018534369, "name": "Shell", "shop": "convenience"}, "geometry": {"type": "Point", "coordinates": [-90.0475161, 35.1572525]}}, {"type": "Feature", "properties": {"osm_type": "way", "osm_id": 118643981, "name": "Memphis Farmers Market", "addr:street": "South Front Street", "amenity": "marketplace", "website": "https://www.memphisfarmersmarket.org/location/"}, "geometry": {"type": "Point", "coordinates": [-90.0602904, 35.1318729]}}, {"type": "Feature", "properties": {"osm_type": "way", "osm_id": 166639921, "name": "Tiger Mart", "shop": "convenience"}, "geometry": {"type": "Point", "coordinates": [-90.0243765, 35.0538907]}}, {"type": "Feature", "properties": {"osm_type": "way", "osm_id": 166639923, "name": "Phillips 66", "shop": "convenience"}, "geometry": {"type": "Point", "coordinates": [-90.0256657, 35.0505729]}}, {"type": "Feature", "properties": {"osm_type": "way", "osm_id": 225041077, "name": "City Market Groceries & Deli", "addr:housenumber": "836", "addr:street": "South Cooper Street", "shop": "convenience"}, "geometry": {"type": "Point", "coordinates": [-89.9904768, 35.1229222]}}, {"type": "Feature", "properties": {"osm_type": "way", "osm_id": 226737698, "name": "Tiger Mart", "shop": "convenience"}, "geometry": {"type": "Point", "coordinates": [-89.9457817, 35.1273255]}}, {"type": "Feature", "properties": {"osm_type": "way", "osm_id": 227172268, "name": null, "shop": "convenience"}, "geometry": {"type": "Point", "coordinates": [-89.9625774, 35.1361172]}}, {"type": "Feature", "properties": {"osm_type": "way", "osm_id": 239268378, "name": null, "shop": "convenience"}, "geometry": {"type": "Point", "coordinates": [-90.0055971, 35.1374791]}}, {"type": "Feature", "properties": {"osm_type": "way", "osm_id": 239268380, "name": null, "shop": "convenience"}, "geometry": {"type": "Point", "coordinates": [-90.0057189, 35.1354756]}}, {"type": "Feature", "properties": {"osm_type": "way", "osm_id": 280420612, "name": "The Fresh Market", "shop": "supermarket"}, "geometry": {"type": "Point", "coordinates": [-89.9896516, 35.1333625]}}, {"type": "Feature", "properties": {"osm_type": "way", "osm_id": 283272768, "name": "Kroger", "addr:housenumber": "3444", "addr:street": "Plaza Avenue", "phone": "+1 901-324-1013", "shop": "supermarket", "website": "https://www.kroger.com/stores/grocery/tn/memphis/poplar-plaza/025/00488"}, "geometry": {"type": "Point", "coordinates": [-89.94803, 35.1305609]}}, {"type": "Feature", "properties": {"osm_type": "way", "osm_id": 290216988, "name": "Aldi", "addr:housenumber": "4056", "addr:street": "Elvis Presley Boulevard", "phone": "+1 833-470-4070", "shop": "supermarket", "website": "https://stores.aldi.us/tn/memphis/4056-elvis-presley-blvd"}, "geometry": {"type": "Point", "coordinates": [-90.0242349, 35.0381618]}}, {"type": "Feature", "properties": {"osm_type": "way", "osm_id": 391736398, "name": "Cash Saver", "addr:housenumber": "1620", "addr:street": "Madison Avenue", "phone": "+1-901-272-0171", "shop": "supermarket", "website": "https://www.memphiscashsaver.com/"}, "geometry": {"type": "Point", "coordinates": [-90.0070803, 35.1393739]}}, {"type": "Feature", "properties": {"osm_type": "way", "osm_id": 483299136, "name": null, "shop": "convenience"}, "geometry": {"type": "Point", "coordinates": [-89.990495, 35.0359773]}}, {"type": "Feature", "properties": {"osm_type": "way", "osm_id": 534380415, "name": null, "addr:housenumber": "186", "addr:street": "North Danny Thomas Boulevard", "shop": "convenience"}, "geometry": {"type": "Point", "coordinates": [-90.043146, 35.147692]}}, {"type": "Feature", "properties": {"osm_type": "way", "osm_id": 545060983, "name": null, "shop": "convenience"}, "geometry": {"type": "Point", "coordinates": [-89.9964937, 35.1418564]}}, {"type": "Feature", "properties": {"osm_type": "way", "osm_id": 570555003, "name": "Jack's Food", "addr:housenumber": "84", "addr:street": "North Main Street", "shop": "convenience"}, "geometry": {"type": "Point", "coordinates": [-90.0515578, 35.1473383]}}, {"type": "Feature", "properties": {"osm_type": "way", "osm_id": 586979567, "name": null, "shop": "convenience"}, "geometry": {"type": "Point", "coordinates": [-89.9512898, 35.0518099]}}, {"type": "Feature", "properties": {"osm_type": "way", "osm_id": 602715700, "name": "Kroger", "addr:housenumber": "1761", "addr:street": "Union Avenue", "phone": "+1 901-272-8630", "shop": "supermarket", "website": "https://www.kroger.com/stores/grocery/tn/memphis/union-ave/025/00402"}, "geometry": {"type": "Point", "coordinates": [-90.0035335, 35.1351292]}}, {"type": "Feature", "properties": {"osm_type": "way", "osm_id": 613184528, "name": "Save-A-Lot", "shop": "supermarket"}, "geometry": {"type": "Point", "coordinates": [-90.087566, 35.0199597]}}, {"type": "Feature", "properties": {"osm_type": "way", "osm_id": 614942899, "name": null, "shop": "convenience"}, "geometry": {"type": "Point", "coordinates": [-90.0736517, 35.0357238]}}, {"type": "Feature", "properties": {"osm_type": "way", "osm_id": 614942907, "name": null, "shop": "convenience"}, "geometry": {"type": "Point", "coordinates": [-90.0698427, 35.0381882]}}, {"type": "Feature", "properties": {"osm_type": "way", "osm_id": 727336152, "name": "Kroger", "addr:housenumber": "1212", "addr:street": "East Shelby Drive", "phone": "+1 901-346-3336", "shop": "supermarket", "website": "https://www.kroger.com/stores/grocery/tn/memphis/whitehaven/025/00486"}, "geometry": {"type": "Point", "coordinates": [-90.0234688, 35.022705]}}, {"type": "Feature", "properties": {"osm_type": "way", "osm_id": 727336157, "name": null, "shop": "convenience"}, "geometry": {"type": "Point", "coordinates": [-90.0204009, 35.0214193]}}, {"type": "Feature", "properties": {"osm_type": "way", "osm_id": 755748892, "name": "Hop-In", "shop": "convenience"}, "geometry": {"type": "Point", "coordinates": [-89.9807194, 35.1514254]}}, {"type": "Feature", "properties": {"osm_type": "way", "osm_id": 755748895, "name": null, "shop": "convenience"}, "geometry": {"type": "Point", "coordinates": [-89.9772789, 35.1510013]}}, {"type": "Feature", "properties": {"osm_type": "way", "osm_id": 759484475, "name": null, "shop": "convenience"}, "geometry": {"type": "Point", "coordinates": [-90.000491, 35.160538]}}, {"type": "Feature", "properties": {"osm_type": "way", "osm_id": 761142301, "name": null, "shop": "convenience"}, "geometry": {"type": "Point", "coordinates": [-90.0040669, 35.1423637]}}, {"type": "Feature", "properties": {"osm_type": "way", "osm_id": 780359877, "name": "Downtown Express", "shop": "convenience"}, "geometry": {"type": "Point", "coordinates": [-90.0441232, 35.1489035]}}, {"type": "Feature", "properties": {"osm_type": "way", "osm_id": 787805097, "name": "Roxie's Grocery", "addr:housenumber": "520", "addr:street": "North 3rd Street", "amenity": "marketplace"}, "geometry": {"type": "Point", "coordinates": [-90.0445661, 35.1582664]}}, {"type": "Feature", "properties": {"osm_type": "way", "osm_id": 835570070, "name": null, "shop": "convenience"}, "geometry": {"type": "Point", "coordinates": [-89.9763809, 35.1500496]}}, {"type": "Feature", "properties": {"osm_type": "way", "osm_id": 835570143, "name": null, "shop": "convenience"}, "geometry": {"type": "Point", "coordinates": [-89.9616965, 35.1477907]}}, {"type": "Feature", "properties": {"osm_type": "way", "osm_id": 836544659, "name": null, "shop": "convenience"}, "geometry": {"type": "Point", "coordinates": [-90.0278278, 35.1373299]}}, {"type": "Feature", "properties": {"osm_type": "way", "osm_id": 837581605, "name": null, "shop": "convenience"}, "geometry": {"type": "Point", "coordinates": [-89.9510915, 35.0527369]}}, {"type": "Feature", "properties": {"osm_type": "way", "osm_id": 872149777, "name": null, "shop": "convenience"}, "geometry": {"type": "Point", "coordinates": [-90.0693322, 35.0360576]}}, {"type": "Feature", "properties": {"osm_type": "way", "osm_id": 965096584, "name": "Speedway", "addr:housenumber": "4302", "addr:street": "East Shelby Drive", "shop": "convenience"}, "geometry": {"type": "Point", "coordinates": [-89.9200143, 35.0211888]}}, {"type": "Feature", "properties": {"osm_type": "way", "osm_id": 965096591, "name": "Shell", "addr:housenumber": "3799", "addr:street": "East Shelby Drive", "shop": "convenience"}, "geometry": {"type": "Point", "coordinates": [-89.9373656, 35.0201082]}}, {"type": "Feature", "properties": {"osm_type": "way", "osm_id": 1444016304, "name": null, "shop": "convenience"}, "geometry": {"type": "Point", "coordinates": [-89.943859, 35.0514317]}}, {"type": "Feature", "properties": {"osm_type": "way", "osm_id": 1444762352, "name": null, "shop": "convenience"}, "geometry": {"type": "Point", "coordinates": [-89.9307608, 35.037535]}}], "source": "OpenStreetMap via Overpass API", "fetched_at": "2026-07-17T05:11:49.788460+00:00"}