{"type": "FeatureCollection", "features": [{"type": "Feature", "properties": {"osm_type": "node", "osm_id": 5495173508, "name": "St. Jude Biomedical Library", "amenity": "library"}, "geometry": {"type": "Point", "coordinates": [-90.0424036, 35.1541419]}}, {"type": "Feature", "properties": {"osm_type": "way", "osm_id": 126631958, "name": "Ned R McWherter Library", "addr:housenumber": "3785", "addr:street": "Norriswood Avenue", "amenity": "library", "website": "https://umwa.memphis.edu/campusmap/index.php/welcome/building/55/int"}, "geometry": {"type": "Point", "coordinates": [-89.9361493, 35.1208573]}}, {"type": "Feature", "properties": {"osm_type": "way", "osm_id": 129776379, "name": "Benjamin L. Hooks Central Library", "addr:housenumber": "3030", "addr:street": "Poplar Avenue", "amenity": "library", "phone": "+1 901-415-2700"}, "geometry": {"type": "Point", "coordinates": [-89.9608047, 35.1333711]}}, {"type": "Feature", "properties": {"osm_type": "way", "osm_id": 129970012, "name": "Cossitt-Goodwyn Public Library", "addr:housenumber": "33", "addr:street": "South Front Street", "amenity": "library", "phone": "+1 901-415-2766"}, "geometry": {"type": "Point", "coordinates": [-90.054924, 35.1450108]}}, {"type": "Feature", "properties": {"osm_type": "way", "osm_id": 227222929, "name": "Plough Library", "amenity": "library", "website": "https://www.cbu.edu/library/"}, "geometry": {"type": "Point", "coordinates": [-89.982118, 35.127968]}}, {"type": "Feature", "properties": {"osm_type": "way", "osm_id": 274821997, "name": "North Branch Memphis Public Library", "addr:housenumber": "1192", "addr:street": "Vollintine Avenue;Vollintine", "amenity": "library", "phone": "+1 901-415-2775", "website": "https://www.memphislibrary.org/branches-north/north"}, "geometry": {"type": "Point", "coordinates": [-90.0174203, 35.1658256]}}, {"type": "Feature", "properties": {"osm_type": "way", "osm_id": 458285131, "name": "Burrow Library", "amenity": "library"}, "geometry": {"type": "Point", "coordinates": [-89.9888275, 35.1531391]}}, {"type": "Feature", "properties": {"osm_type": "way", "osm_id": 628929491, "name": "Levi Branch Public Library", "addr:housenumber": "3676", "addr:street": "Hwy 61 S.", "amenity": "library", "phone": "+1 901-415-2773", "website": "https://www.memphislibrary.org/about/locations/levi-library/"}, "geometry": {"type": "Point", "coordinates": [-90.0620884, 35.0483368]}}, {"type": "Feature", "properties": {"osm_type": "way", "osm_id": 636965002, "name": "Whitehaven Branch Memphis Public Library", "addr:housenumber": "4120", "addr:street": "Millbranch Road", "amenity": "library", "phone": "+1 901-415-2781", "website": "https://www.memphislibrary.org/branches-south/whitehaven"}, "geometry": {"type": "Point", "coordinates": [-90.0069408, 35.0360848]}}, {"type": "Feature", "properties": {"osm_type": "way", "osm_id": 710519048, "name": "Randolph Branch Memphis Public Library", "addr:housenumber": "3752", "addr:street": "Given", "amenity": "library", "phone": "+1 901-415-2779"}, "geometry": {"type": "Point", "coordinates": [-89.9352631, 35.1563522]}}, {"type": "Feature", "properties": {"osm_type": "way", "osm_id": 743692287, "name": "Cherokee Branch Memphis Public Library", "addr:housenumber": "3300", "addr:street": "Sharpe", "amenity": "library", "phone": "+1 901-415-2762"}, "geometry": {"type": "Point", "coordinates": [-89.9530587, 35.0870907]}}, {"type": "Feature", "properties": {"osm_type": "way", "osm_id": 749287502, "name": "Memphis Public Libraries Orange Mound Branch", "addr:housenumber": "843", "addr:street": "Dallas Street", "amenity": "library"}, "geometry": {"type": "Point", "coordinates": [-89.9756846, 35.1094421]}}, {"type": "Feature", "properties": {"osm_type": "way", "osm_id": 773890001, "name": "Hollie Price Library", "amenity": "library"}, "geometry": {"type": "Point", "coordinates": [-90.0356943, 35.118717]}}, {"type": "Feature", "properties": {"osm_type": "way", "osm_id": 778760239, "name": "Cornelia Crenshaw Branch Memphis Public Library", "addr:housenumber": "531", "addr:street": "Vance Avenue", "amenity": "library", "phone": "+1 901-415-2765", "website": "https://www.memphislibrary.org/about/locations/cornelia-crenshaw-memorial-library/"}, "geometry": {"type": "Point", "coordinates": [-90.0443271, 35.1343588]}}, {"type": "Feature", "properties": {"osm_type": "way", "osm_id": 900383785, "name": "Baptist Health Topic Library", "addr:housenumber": "877", "addr:street": "Madison Avenue", "amenity": "library", "website": "https://uthsc.edu/library"}, "geometry": {"type": "Point", "coordinates": [-90.0314245, 35.1397994]}}, {"type": "Feature", "properties": {"osm_type": "way", "osm_id": 1341972360, "name": "Hollywood Branch Memphis Public Library", "addr:housenumber": "1530", "addr:street": "North Hollywood Street", "amenity": "library", "phone": "+1 901-415-2772", "website": "https://www.memphislibrary.org/about/locations/hollywood-library/"}, "geometry": {"type": "Point", "coordinates": [-89.9748134, 35.1777733]}}, {"type": "Feature", "properties": {"osm_type": "way", "osm_id": 1341972463, "name": "Gaston Park Branch Public Library", "addr:housenumber": "1040", "addr:street": "South Third Street;South 3Rd Street", "amenity": "library", "phone": "+1 901-415-2769", "website": "https://www.memphislibrary.org/branches-south/gaston-park"}, "geometry": {"type": "Point", "coordinates": [-90.0542288, 35.1192501]}}, {"type": "Feature", "properties": {"osm_type": "way", "osm_id": 1341972489, "name": "South Branch Memphis Public Library", "addr:street": "South Third Street", "amenity": "library", "phone": "+1 901 415 2780", "website": "https://www.memphislibrary.org/branches-south/south"}, "geometry": {"type": "Point", "coordinates": [-90.0581098, 35.0942377]}}, {"type": "Feature", "properties": {"osm_type": "relation", "osm_id": 10660697, "name": "Paul Barrett Junior Library", "amenity": "library"}, "geometry": {"type": "Point", "coordinates": [-89.9895985, 35.1554182]}}], "source": "OpenStreetMap via Overpass API", "fetched_at": "2026-07-17T05:16:49.459585+00:00"}