{"type": "FeatureCollection", "features": [{"type": "Feature", "properties": {"osm_type": "way", "osm_id": 129992437, "name": "Chandler Park"}, "geometry": {"type": "Point", "coordinates": [-90.0297537, 35.1182281]}}, {"type": "Feature", "properties": {"osm_type": "way", "osm_id": 274815142, "name": "Glenview Park", "website": "https://www.memphistn.gov/Government/ParksNeighborhoods/Parks/AttachedtoCommunityCenters.aspx"}, "geometry": {"type": "Point", "coordinates": [-90.0020614, 35.1150389]}}, {"type": "Feature", "properties": {"osm_type": "way", "osm_id": 368790579, "name": "South Side Park"}, "geometry": {"type": "Point", "coordinates": [-90.0418502, 35.107928]}}, {"type": "Feature", "properties": {"osm_type": "way", "osm_id": 368790581, "name": "Jesse Turner Park"}, "geometry": {"type": "Point", "coordinates": [-90.0203846, 35.111001]}}, {"type": "Feature", "properties": {"osm_type": "way", "osm_id": 543907425, "name": "Rozelle Park"}, "geometry": {"type": "Point", "coordinates": [-90.0060897, 35.1226738]}}, {"type": "Feature", "properties": {"osm_type": "way", "osm_id": 571871528, "name": "Lincoln Park"}, "geometry": {"type": "Point", "coordinates": [-90.0154607, 35.0991348]}}, {"type": "Feature", "properties": {"osm_type": "way", "osm_id": 1328899896, "name": "Lincoln Park"}, "geometry": {"type": "Point", "coordinates": [-90.040245, 35.1039471]}}], "source": "OpenStreetMap via Overpass API", "fetched_at": "2026-07-16T06:56:02.676483+00:00"}