{"type": "FeatureCollection", "features": [{"type": "Feature", "properties": {"osm_type": "node", "osm_id": 356787513, "name": "Bertrand High School"}, "geometry": {"type": "Point", "coordinates": [-90.023625, 35.1061383]}}, {"type": "Feature", "properties": {"osm_type": "node", "osm_id": 356827057, "name": "Pine Hill School"}, "geometry": {"type": "Point", "coordinates": [-90.0273132, 35.0939797]}}, {"type": "Feature", "properties": {"osm_type": "node", "osm_id": 356845334, "name": "Longview Heights School"}, "geometry": {"type": "Point", "coordinates": [-90.0409246, 35.0939798]}}, {"type": "Feature", "properties": {"osm_type": "node", "osm_id": 356895651, "name": "Saint Thomas School"}, "geometry": {"type": "Point", "coordinates": [-90.0423134, 35.1128684]}}, {"type": "Feature", "properties": {"osm_type": "node", "osm_id": 356899366, "name": "Bluff City Bible College"}, "geometry": {"type": "Point", "coordinates": [-90.0373805, 35.1151951]}}, {"type": "Feature", "properties": {"osm_type": "node", "osm_id": 356899382, "name": "Cathedral of Immaculate Conception Preschool"}, "geometry": {"type": "Point", "coordinates": [-90.0056872, 35.1249531]}}, {"type": "Feature", "properties": {"osm_type": "node", "osm_id": 356899494, "name": "Le-Sueurs Multi Purpose Learning Center"}, "geometry": {"type": "Point", "coordinates": [-90.018566, 35.111286]}}, {"type": "Feature", "properties": {"osm_type": "node", "osm_id": 356899507, "name": "McOutreach Learning Center"}, "geometry": {"type": "Point", "coordinates": [-90.0394868, 35.120549]}}, {"type": "Feature", "properties": {"osm_type": "node", "osm_id": 356899547, "name": "Saint Augustine Elementary School"}, "geometry": {"type": "Point", "coordinates": [-90.0239575, 35.1058926]}}, {"type": "Feature", "properties": {"osm_type": "way", "osm_id": 98032904, "name": "Dunn Avenue School"}, "geometry": {"type": "Point", "coordinates": [-90.0127815, 35.0938147]}}, {"type": "Feature", "properties": {"osm_type": "way", "osm_id": 206501737, "name": "Rozelle Elementary School"}, "geometry": {"type": "Point", "coordinates": [-90.0093715, 35.1190662]}}, {"type": "Feature", "properties": {"osm_type": "way", "osm_id": 368790583, "name": "Lincoln Elementary School", "addr:housenumber": "1566", "addr:street": "South Orleans Street", "phone": "+1-901-416-7860", "website": "https://www.scsk12.org/schools/lincoln.es/site/index.shtml"}, "geometry": {"type": "Point", "coordinates": [-90.0415555, 35.1088346]}}, {"type": "Feature", "properties": {"osm_type": "way", "osm_id": 605707722, "name": null}, "geometry": {"type": "Point", "coordinates": [-90.023853, 35.1059584]}}, {"type": "Feature", "properties": {"osm_type": "way", "osm_id": 605707723, "name": "Hamilton High School"}, "geometry": {"type": "Point", "coordinates": [-90.0158696, 35.0998144]}}, {"type": "Feature", "properties": {"osm_type": "way", "osm_id": 828278253, "name": "Cummings Elementary School"}, "geometry": {"type": "Point", "coordinates": [-90.0281958, 35.1186041]}}, {"type": "Feature", "properties": {"osm_type": "way", "osm_id": 1122766857, "name": "Ida B. Wells Academy"}, "geometry": {"type": "Point", "coordinates": [-90.0443904, 35.1204282]}}, {"type": "Feature", "properties": {"osm_type": "way", "osm_id": 1122768394, "name": "Memphis Delta Prep"}, "geometry": {"type": "Point", "coordinates": [-90.0315181, 35.1132151]}}, {"type": "Feature", "properties": {"osm_type": "way", "osm_id": 1122920635, "name": "Hamilton Junior High School"}, "geometry": {"type": "Point", "coordinates": [-90.0167189, 35.1056744]}}, {"type": "Feature", "properties": {"osm_type": "way", "osm_id": 1464043910, "name": null}, "geometry": {"type": "Point", "coordinates": [-90.0157536, 35.0843769]}}], "source": "OpenStreetMap via Overpass API", "fetched_at": "2026-07-16T06:57:18.704352+00:00"}