{"type": "FeatureCollection", "features": [{"type": "Feature", "properties": {"name": "South District (PLACEHOLDER — not the real boundary)", "is_placeholder": true}, "geometry": {"type": "Polygon", "coordinates": [[[-90.045, 35.085], [-90.0, 35.085], [-90.0, 35.125], [-90.045, 35.125], [-90.045, 35.085]]]}}], "source": "PLACEHOLDER — replace with a real download from https://www.memphis3point0.com/district-home/south-district or Shelby County GIS; not real district geometry.", "fetched_at": "2026-07-16T06:54:26.845872+00:00"}